{
  "type": "FeatureCollection",
  "features": [
    {
      "type": "Feature",
      "properties": {
        "norad_id": 32275,
        "name": "COSMOS 2433 (720)",
        "group": "glo-ops",
        "lat": -13.52566703074523,
        "lon": -44.42619947146854,
        "alt_km": 19131.80597700237,
        "timestamp": "2025-12-23T20:42:37.336459+00:00",
        "meta_object_name": "COSMOS 2433 (720)",
        "meta_object_id": "2007-052A",
        "meta_epoch": "2025-12-22T00:07:36.568704",
        "meta_mean_motion": 2.13104226,
        "meta_eccentricity": 0.00051704,
        "meta_inclination": 65.6781,
        "meta_ra_of_asc_node": 321.8942,
        "meta_arg_of_pericenter": 255.846,
        "meta_mean_anomaly": 104.0915,
        "meta_ephemeris_type": 0,
        "meta_classification_type": "U",
        "meta_norad_cat_id": 32275,
        "meta_element_set_no": 999,
        "meta_rev_at_epoch": 14128,
        "meta_bstar": 0,
        "meta_mean_motion_dot": -4.2e-07,
        "meta_mean_motion_ddot": 0,
        "tle_line1": "1 32275U 07052A   25356.00528436 -.00000042  00000+0  00000+0 0  9997",
        "tle_line2": "2 32275  65.6781 321.8942 0005170 255.8460 104.0915  2.13104226141283"
      },
      "geometry": {
        "type": "Point",
        "coordinates": [
          -44.42619947146854,
          -13.52566703074523
        ]
      }
    },
    {
      "type": "Feature",
      "properties": {
        "norad_id": 32276,
        "name": "COSMOS 2432 (719)",
        "group": "glo-ops",
        "lat": -59.23385289531022,
        "lon": -87.40853134164941,
        "alt_km": 19109.822925369084,
        "timestamp": "2025-12-23T20:42:37.336484+00:00",
        "meta_object_name": "COSMOS 2432 (719)",
        "meta_object_id": "2007-052B",
        "meta_epoch": "2025-12-23T06:07:11.644032",
        "meta_mean_motion": 2.13103423,
        "meta_eccentricity": 0.00113597,
        "meta_inclination": 65.6934,
        "meta_ra_of_asc_node": 321.9768,
        "meta_arg_of_pericenter": 314.4802,
        "meta_mean_anomaly": 228.6315,
        "meta_ephemeris_type": 0,
        "meta_classification_type": "U",
        "meta_norad_cat_id": 32276,
        "meta_element_set_no": 999,
        "meta_rev_at_epoch": 14133,
        "meta_bstar": 0,
        "meta_mean_motion_dot": -3.6e-07,
        "meta_mean_motion_ddot": 0,
        "tle_line1": "1 32276U 07052B   25357.25499588 -.00000036  00000+0  00000+0 0  9994",
        "tle_line2": "2 32276  65.6934 321.9768 0011359 314.4802 228.6315  2.13103423141330"
      },
      "geometry": {
        "type": "Point",
        "coordinates": [
          -87.40853134164941,
          -59.23385289531022
        ]
      }
    },
    {
      "type": "Feature",
      "properties": {
        "norad_id": 32393,
        "name": "COSMOS 2434 (721)",
        "group": "glo-ops",
        "lat": -48.06779105791604,
        "lon": 50.24665714549832,
        "alt_km": 19147.314984250912,
        "timestamp": "2025-12-23T20:42:37.336500+00:00",
        "meta_object_name": "COSMOS 2434 (721)",
        "meta_object_id": "2007-065A",
        "meta_epoch": "2025-12-22T08:26:32.754336",
        "meta_mean_motion": 2.13101487,
        "meta_eccentricity": 0.00048131,
        "meta_inclination": 64.3157,
        "meta_ra_of_asc_node": 197.8788,
        "meta_arg_of_pericenter": 72.4714,
        "meta_mean_anomaly": 83.8697,
        "meta_ephemeris_type": 0,
        "meta_classification_type": "U",
        "meta_norad_cat_id": 32393,
        "meta_element_set_no": 999,
        "meta_rev_at_epoch": 14000,
        "meta_bstar": 0,
        "meta_mean_motion_dot": 9.5e-07,
        "meta_mean_motion_ddot": 0,
        "tle_line1": "1 32393U 07065A   25356.35176799  .00000095  00000+0  00000+0 0  9998",
        "tle_line2": "2 32393  64.3157 197.8788 0004813  72.4714  83.8697  2.13101487140000"
      },
      "geometry": {
        "type": "Point",
        "coordinates": [
          50.24665714549832,
          -48.06779105791604
        ]
      }
    },
    {
      "type": "Feature",
      "properties": {
        "norad_id": 32395,
        "name": "COSMOS 2436 (723)",
        "group": "glo-ops",
        "lat": 7.759650749178129,
        "lon": -158.33667003642256,
        "alt_km": 19084.13663032404,
        "timestamp": "2025-12-23T20:42:37.336513+00:00",
        "meta_object_name": "COSMOS 2436 (723)",
        "meta_object_id": "2007-065C",
        "meta_epoch": "2025-12-23T03:59:34.800000",
        "meta_mean_motion": 2.13100231,
        "meta_eccentricity": 0.00178059,
        "meta_inclination": 64.3245,
        "meta_ra_of_asc_node": 197.9217,
        "meta_arg_of_pericenter": 10.2027,
        "meta_mean_anomaly": 184.1085,
        "meta_ephemeris_type": 0,
        "meta_classification_type": "U",
        "meta_norad_cat_id": 32395,
        "meta_element_set_no": 999,
        "meta_rev_at_epoch": 13997,
        "meta_bstar": 0,
        "meta_mean_motion_dot": 9.5e-07,
        "meta_mean_motion_ddot": 0,
        "tle_line1": "1 32395U 07065C   25357.16637500  .00000095  00000+0  00000+0 0  9992",
        "tle_line2": "2 32395  64.3245 197.9217 0017805  10.2027 184.1085  2.13100231139976"
      },
      "geometry": {
        "type": "Point",
        "coordinates": [
          -158.33667003642256,
          7.759650749178129
        ]
      }
    },
    {
      "type": "Feature",
      "properties": {
        "norad_id": 36111,
        "name": "COSMOS 2456 (730)",
        "group": "glo-ops",
        "lat": 29.376416579099295,
        "lon": 92.24309442861049,
        "alt_km": 19127.620399829102,
        "timestamp": "2025-12-23T20:42:37.336525+00:00",
        "meta_object_name": "COSMOS 2456 (730)",
        "meta_object_id": "2009-070A",
        "meta_epoch": "2025-12-23T08:10:18.888096",
        "meta_mean_motion": 2.13103774,
        "meta_eccentricity": 0.00036109,
        "meta_inclination": 64.9055,
        "meta_ra_of_asc_node": 76.9756,
        "meta_arg_of_pericenter": 295.3784,
        "meta_mean_anomaly": 56.6202,
        "meta_ephemeris_type": 0,
        "meta_classification_type": "U",
        "meta_norad_cat_id": 36111,
        "meta_element_set_no": 999,
        "meta_rev_at_epoch": 12467,
        "meta_bstar": 0,
        "meta_mean_motion_dot": -1e-08,
        "meta_mean_motion_ddot": 0,
        "tle_line1": "1 36111U 09070A   25357.34049639 -.00000001  00000+0  00000+0 0  9998",
        "tle_line2": "2 36111  64.9055  76.9756 0003610 295.3784  56.6202  2.13103774124670"
      },
      "geometry": {
        "type": "Point",
        "coordinates": [
          92.24309442861049,
          29.376416579099295
        ]
      }
    },
    {
      "type": "Feature",
      "properties": {
        "norad_id": 36112,
        "name": "COSMOS 2457 (733)",
        "group": "glo-ops",
        "lat": 16.39312958958108,
        "lon": -111.0977051238914,
        "alt_km": 19116.86859590488,
        "timestamp": "2025-12-23T20:42:37.336555+00:00",
        "meta_object_name": "COSMOS 2457 (733)",
        "meta_object_id": "2009-070B",
        "meta_epoch": "2025-12-23T04:05:37.472640",
        "meta_mean_motion": 2.13101144,
        "meta_eccentricity": 0.00044981,
        "meta_inclination": 64.891,
        "meta_ra_of_asc_node": 76.8287,
        "meta_arg_of_pericenter": 163.0286,
        "meta_mean_anomaly": 187.6554,
        "meta_ephemeris_type": 0,
        "meta_classification_type": "U",
        "meta_norad_cat_id": 36112,
        "meta_element_set_no": 999,
        "meta_rev_at_epoch": 12467,
        "meta_bstar": 0,
        "meta_mean_motion_dot": -2e-08,
        "meta_mean_motion_ddot": 0,
        "tle_line1": "1 36112U 09070B   25357.17057260 -.00000002  00000+0  00000+0 0  9990",
        "tle_line2": "2 36112  64.8910  76.8287 0004498 163.0286 187.6554  2.13101144124675"
      },
      "geometry": {
        "type": "Point",
        "coordinates": [
          -111.0977051238914,
          16.39312958958108
        ]
      }
    },
    {
      "type": "Feature",
      "properties": {
        "norad_id": 36402,
        "name": "COSMOS 2460 (732)",
        "group": "glo-ops",
        "lat": 16.76202955479455,
        "lon": 132.50136522913556,
        "alt_km": 19131.292240144063,
        "timestamp": "2025-12-23T20:42:37.336570+00:00",
        "meta_object_name": "COSMOS 2460 (732)",
        "meta_object_id": "2010-007C",
        "meta_epoch": "2025-12-22T12:30:28.820160",
        "meta_mean_motion": 2.1310637,
        "meta_eccentricity": 0.00025026,
        "meta_inclination": 65.5243,
        "meta_ra_of_asc_node": 320.4432,
        "meta_arg_of_pericenter": 283.7046,
        "meta_mean_anomaly": 288.4145,
        "meta_ephemeris_type": 0,
        "meta_classification_type": "U",
        "meta_norad_cat_id": 36402,
        "meta_element_set_no": 999,
        "meta_rev_at_epoch": 12296,
        "meta_bstar": 0,
        "meta_mean_motion_dot": -3.9e-07,
        "meta_mean_motion_ddot": 0,
        "tle_line1": "1 36402U 10007C   25356.52116690 -.00000039  00000+0  00000+0 0  9995",
        "tle_line2": "2 36402  65.5243 320.4432 0002502 283.7046 288.4145  2.13106370122964"
      },
      "geometry": {
        "type": "Point",
        "coordinates": [
          132.50136522913556,
          16.76202955479455
        ]
      }
    }
  ]
}